ECHOSTAR 6              
1 26402U 00038A   16218.33345723 -.00000170  00000-0  00000+0 0  9991
2 26402   3.5832  68.7880 0003425  68.5969 200.7546  1.00271410 58789
INTELSAT 9 (IS-9)       
1 26451U 00043A   16218.09918927 -.00000295  00000-0  00000+0 0  9994
2 26451   2.9135  72.9281 0001803  66.1899 167.5575  1.00271951 58713
BRASILSAT B4            
1 26469U 00046A   16217.60338928  .00000000  00000-0  10000-3 0  9997
2 26469   0.9997  86.7607 0002097  21.7630 338.2663  1.00266162 58518
NILESAT 102             
1 26470U 00046B   16217.29466481 -.00000084  00000-0  00000+0 0  9998
2 26470   1.0223  84.9458 0004213  77.4388 249.9886  1.00273330 58507
ASTRA 2B                
1 26494U 00054A   16217.80974537  .00000130  00000-0  00000+0 0  9997
2 26494   1.5650  79.9899 0000606 305.2992 252.5196  1.00416520 58100
AMC-7 (GE-7)            
1 26495U 00054B   16217.50401693  .00000063  00000-0  00000+0 0  9998
2 26495   0.0295  62.6046 0001042 106.6855 190.7121  1.00269069 58126
NSS-11 (AAP-1)          
1 26554U 00059A   16218.00882784 -.00000369  00000-0  00000+0 0  9999
2 26554   0.0534 273.2004 0002573 198.7205 313.4320  1.00273312 58045
N-SAT-110 (JCSAT-110)   
1 26559U 00060A   16217.97736631 -.00000375  00000-0  00000+0 0  9997
2 26559   0.0179 260.5969 0001096  98.5474  56.7242  1.00271821 57983
AMC-6 (GE-6)            
1 26580U 00067A   16218.32368584 -.00000283  00000-0  00000+0 0  9994
2 26580   0.0494 284.1322 0002714 224.0475 210.6310  1.00271496 57869
INTELSAT 12 (IS-12)     
1 26590U 00068A   16218.10956852  .00000113  00000-0  00000+0 0  9994
2 26590   0.0640 265.1494 0002268 228.5143 264.8380  1.00275377 57676
INTELSAT 1R (IS-1R)     
1 26608U 00072A   16218.23694203 -.00000306  00000-0  00000+0 0  9997
2 26608   0.0537 261.9647 0001048 331.8280 115.6139  1.00265701 57529
ANIK F1                 
1 26624U 00076A   16217.42750667 -.00000100  00000-0  00000+0 0  9998
2 26624   0.0177 130.7252 0002716   5.0526 224.2241  1.00272830 57597
ASTRA 2D                
1 26638U 00081A   16217.17014229  .00000042  00000-0  00000+0 0  9992
2 26638   3.0347  71.5061 0001953  44.6744 315.4833  1.00269101 57257
AMC-8 (GE-8)            
1 26639U 00081B   16217.45483012  .00000079  00000-0  00000+0 0  9994
2 26639   0.0166  10.3692 0002622 115.8634 211.9323  1.00271728 57137
TURKSAT 2A              
1 26666U 01002A   16218.01127906  .00000121  00000-0  00000+0 0  9996
2 26666   0.4979  84.4924 0003565  29.5653 245.9610  1.00275095 57038
SKYNET 4F               
1 26695U 01005B   16216.31088689 -.00000271  00000-0  00000+0 0  9993
2 26695   8.5163  38.9609 0002337  90.3354 260.9989  1.00272293 56737
EUTELSAT 33C            
1 26719U 01011A   16218.17522266  .00000132  00000-0  00000+0 0  9992
2 26719   0.0655 352.1826 0002582 145.8409 272.2674  1.00273794 56451
INTELSAT 10 (IS-10)     
1 26766U 01019A   16217.82174171  .00000102  00000-0  00000+0 0  9998
2 26766   0.8579  86.6877 0001406  26.8440 183.5738  1.00270369 55794
INTELSAT 901 (IS-901)   
1 26824U 01024A   16217.71818998 -.00000166  00000-0  00000+0 0  9990
2 26824   0.0542 276.0895 0002603 237.9482  40.1974  1.00272670 55468
ASTRA 2C                
1 26853U 01025A   16217.67155693  .00000021  00000-0  00000+0 0  9993
2 26853   0.1057 286.7780 0002815 205.9604 122.9596  1.00274149 55449
ARTEMIS                 
1 26863U 01029A   16217.57564626 -.00000055  00000-0  00000+0 0  9995
2 26863  12.3815  36.4272 0003412 120.4128  67.4578  1.00443453 56269
INTELSAT 902 (IS-902)   
1 26900U 01039A   16217.92753112  .00000009  00000-0  00000+0 0  9995
2 26900   0.0140  67.3965 0003107  77.1380 205.2677  1.00272074 54637
EUTELSAT 8 WEST A       
1 26927U 01042A   16218.24687730 -.00000124  00000-0  00000+0 0  9995
2 26927   0.0649  11.0228 0004367 119.3453 260.2014  1.00272151 54404
DIRECTV 4S              
1 26985U 01052A   16218.39233957 -.00000137  00000-0  00000+0 0  9998
2 26985   0.0090 269.0481 0001927 216.6225 228.7303  1.00273026 53873
INSAT-3C                
1 27298U 02002A   16217.86494953 -.00000102  00000-0  00000+0 0  9990
2 27298   0.0317  97.1502 0004904  11.7646 230.3070  1.00273017 53225
ECHOSTAR 7              
1 27378U 02006A   16217.38820519 -.00000026  00000-0  00000+0 0  9996
2 27378   0.0584 276.5013 0000329 236.9769 180.8053  1.00272033 52927
INTELSAT 904 (IS-904)   
1 27380U 02007A   16217.92969260  .00000025  00000-0  00000+0 0  9995
2 27380   0.0112 315.6227 0003089 185.0761 207.8981  1.00271615 52959
TDRS 9                  
1 27389U 02011A   16218.24633294 -.00000123  00000-0  00000+0 0  9990
2 27389   4.5995  83.3876 0014019 231.1147  76.2761  1.00270942 54319
JCSAT-2A                
1 27399U 02015A   16217.50813191 -.00000191  00000-0  00000+0 0  9994
2 27399   0.0260  83.3232 0001794 151.8548  55.2234  1.00270997 52489
ASTRA 3A                
1 27400U 02015B   16217.61189613 -.00000186  00000-0  00000+0 0  9998
2 27400   3.2079  70.2839 0000435 166.3242 193.8321  1.00697275 52585
INTELSAT 903 (IS-903)   
1 27403U 02016A   16218.09942558 -.00000262  00000-0  00000+0 0  9995
2 27403   0.0199  71.0252 0003164  67.4383 176.8979  1.00272644 52515
NSS-7                   
1 27414U 02019A   16217.42095361  .00000000  00000-0  10000-3 0  9991
2 27414   1.2384  84.8199 0002513  44.5952 315.4739  1.00266723 52430
DIRECTV 5 (TEMPO 1)     
1 27426U 02023A   16217.43531059 -.00000081  00000-0  00000+0 0  9994
2 27426   0.0156  83.5705 0003089  62.4963 213.9333  1.00271962 52170
INTELSAT 905 (IS-905)   
1 27438U 02027A   16218.03232956 -.00000208  00000-0  00000+0 0  9993
2 27438   0.0121 234.9208 0002978 239.3263 186.9106  1.00272508 51835
EXPRESS-A4              
1 27441U 02029A   16217.76887519 -.00000269  00000-0  00000+0 0  9996
2 27441   5.5190  58.6185 0003522  78.9427 238.3310  1.00273477 51830
GALAXY 3C (G-3C)        
1 27445U 02030A   16217.39347006 -.00000177  00000-0  00000+0 0  9991
2 27445   0.0341 301.8750 0001476  39.2412  18.8583  1.00272498 51827
EUTELSAT 5 WEST A       
1 27460U 02035A   16217.26224966  .00000000  00000-0  10000-3 0  9997
2 27460   0.0392  19.1272 0005023 113.4205 270.1037  1.00270190 51627
N-STAR C                
1 27461U 02035B   16218.42948539 -.00000332  00000-0  00000+0 0  9990
2 27461   4.0413  66.6425 0004071  32.6668 145.6962  1.00273989 51532
EUTELSAT 33D            
1 27499U 02038A   16217.93264578 -.00000065  00000-0  00000+0 0  9996
2 27499   0.1250  77.6231 0002948  92.6792 189.6844  1.00265677 51094
ECHOSTAR 8              
1 27501U 02039A   16217.32050522 -.00000268  00000-0  00000+0 0  9991
2 27501   0.4268  89.9174 0002777  53.8110 208.0424  1.00271257 51131
EUTELSAT 12 WEST A      
1 27508U 02040A   16218.22709017 -.00000268  00000-0  00000+0 0  9990
2 27508   0.0683  22.3665 0002460 135.3154 202.3103  1.00270140 51124
METEOSAT-8 (MSG-1)      
1 27509U 02040B   16218.10714064  .00000098  00000-0  00000+0 0  9996
2 27509   4.2864  59.5591 0000854 146.0092 164.8565  1.00401102 51125
INTELSAT 906 (IS-906)   
1 27513U 02041A   16217.88033481 -.00000009  00000-0  00000+0 0  9996
2 27513   0.0459 263.3989 0002359 252.8804 178.6393  1.00270307 50839
KODAMA (DRTS)           
1 27516U 02042B   16218.04696784 -.00000263  00000-0  00000+0 0  9992
2 27516   4.4664  63.9236 0002643  69.0578 288.6958  1.00273365 50925
KALPANA-1 (METSAT 1)    
1 27525U 02043A   16217.08449615  .00000000  00000-0  10000-3 0  9998
2 27525   5.8131  57.3769 0012358 216.9962 143.0519  1.00269421 50904
HISPASAT 1D             
1 27528U 02044A   16218.13763088 -.00000240  00000-0  00000+0 0  9994
2 27528   0.0502 288.7952 0001749 193.6337 211.2221  1.00272157 50817
TDRS 10                 
1 27566U 02055A   16217.77954082  .00000056  00000-0  00000+0 0  9997
2 27566   4.4805  59.8376 0005665 204.2465 155.8901  1.00274293 50093
NSS-6                   
1 27603U 02057A   16217.56340954  .00000000  00000-0  10000-3 0  9999
2 27603   0.0089 290.1814 0001304 189.1216 132.0094  1.00265076 49210
NIMIQ 2                 
1 27632U 02062A   16217.24834729  .00000000  00000-0  10000-3 0  9990
2 27632   1.3320  83.9111 0005037 321.2396  38.7766  0.99501081 49750
INTELSAT 907 (IS-907)   
1 27683U 03007A   16217.20648760 -.00000228  00000-0  00000+0 0  9998
2 27683   0.0135  91.8097 0002650  44.5187 223.6925  1.00271150 49259
INSAT-3A                
1 27714U 03013A   16217.99077223 -.00000282  00000-0  00000+0 0  9996
2 27714   0.1020 269.5509 0006193 190.1317 304.4675  1.00271773 48822
GALAXY 12 (G-12)        
1 27715U 03013B   16217.31914832  .00000033  00000-0  00000+0 0  9992
2 27715   0.0144 240.9399 0002214 278.6607 139.6021  1.00269890 48867
ASIASAT 4               
1 27718U 03014A   16217.78691236 -.00000384  00000-0  00000+0 0  9997
2 27718   0.0057  95.5987 0001080 341.6585 281.9054  1.00271375 48785
HELLAS-SAT 2            
1 27811U 03020A   16217.78493236  .00000128  00000-0  00000+0 0  9993
2 27811   0.0144  91.5899 0003692  37.0946 146.6293  1.00270835 48201
AMC-9 (GE-12)           
1 27820U 03024A   16218.17153216 -.00000239  00000-0  00000+0 0  9996
2 27820   0.0689 280.2839 0003249 235.2688 137.3198  1.00271113 48200
THURAYA-2               
1 27825U 03026A   16218.10049272  .00000109  00000-0  00000+0 0  9997
2 27825   4.6413  27.7925 0004380 105.7988 260.6356  1.00272473 48229
OPTUS C1                
1 27831U 03028B   16218.21061275 -.00000171  00000-0  00000+0 0  9995
2 27831   0.0331 196.2608 0003947 310.5162  39.2182  1.00271860 48195
ECHOSTAR 12 (RAINBOW 1) 
1 27852U 03033A   16218.26173994 -.00000306  00000-0  00000+0 0  9991
2 27852   0.0557 275.4445 0001144 202.7426 228.9002  1.00282378 47855
GALAXY 23 (G-23)        
1 27854U 03034A   16218.15930625 -.00000011  00000-0  00000+0 0  9997
2 27854   0.0209  84.4877 0003057  50.2828 115.7206  1.00272332 52411
